[{"OBJECT_NAME":"STRAND-1","OBJECT_ID":"2013-009E","EPOCH":"2026-03-09T21:53:59.161920","MEAN_MOTION":14.37095119,"ECCENTRICITY":0.00090423,"INCLINATION":98.3888,"RA_OF_ASC_NODE":251.5986,"ARG_OF_PERICENTER":161.0822,"MEAN_ANOMALY":199.0703,"EPHEMERIS_TYPE":0,"CLASSIFICATION_TYPE":"U","NORAD_CAT_ID":39090,"ELEMENT_SET_NO":999,"REV_AT_EPOCH":68280,"BSTAR":0.00017106883,"MEAN_MOTION_DOT":4.66e-6,"MEAN_MOTION_DDOT":0},{"OBJECT_NAME":"METEOR 2-5 DEB","OBJECT_ID":"1979-095CE","EPOCH":"2026-03-06T23:25:56.036928","MEAN_MOTION":14.33292715,"ECCENTRICITY":0.00111611,"INCLINATION":81.1989,"RA_OF_ASC_NODE":266.9519,"ARG_OF_PERICENTER":2.3192,"MEAN_ANOMALY":357.8041,"EPHEMERIS_TYPE":0,"CLASSIFICATION_TYPE":"U","NORAD_CAT_ID":39603,"ELEMENT_SET_NO":999,"REV_AT_EPOCH":62882,"BSTAR":0.0015998335,"MEAN_MOTION_DOT":4.419e-5,"MEAN_MOTION_DDOT":0}]
